[
    {
        "CCSDS_OMM_VERS": "3.0",
        "COMMENT": "GENERATED VIA SPACE-TRACK.ORG API",
        "CREATION_DATE": "2025-03-02T18:08:23",
        "ORIGINATOR": "18 SPCS",
        "OBJECT_NAME": "BEIDOU 3M23",
        "OBJECT_ID": "2019-061A",
        "CENTER_NAME": "EARTH",
        "REF_FRAME": "TEME",
        "TIME_SYSTEM": "UTC",
        "MEAN_ELEMENT_THEORY": "SGP4",
        "EPOCH": "2025-03-01T17:19:32.448576",
        "MEAN_MOTION": "1.86228888",
        "ECCENTRICITY": "0.00081580",
        "INCLINATION": "54.4202",
        "RA_OF_ASC_NODE": "198.6625",
        "ARG_OF_PERICENTER": "15.3627",
        "MEAN_ANOMALY": "344.6140",
        "EPHEMERIS_TYPE": "0",
        "CLASSIFICATION_TYPE": "U",
        "NORAD_CAT_ID": "44542",
        "ELEMENT_SET_NO": "999",
        "REV_AT_EPOCH": "3699",
        "BSTAR": "0.00000000000000",
        "MEAN_MOTION_DOT": "0.00000040",
        "MEAN_MOTION_DDOT": "0.0000000000000",
        "SEMIMAJOR_AXIS": "27906.400",
        "PERIOD": "773.242",
        "APOAPSIS": "21551.031",
        "PERIAPSIS": "21505.499",
        "OBJECT_TYPE": "PAYLOAD",
        "RCS_SIZE": "LARGE",
        "COUNTRY_CODE": "PRC",
        "LAUNCH_DATE": "2019-09-22",
        "SITE": "XSC",
        "DECAY_DATE": null,
        "FILE": "4657142",
        "GP_ID": "282087870",
        "TLE_LINE0": "0 BEIDOU 3M23",
        "TLE_LINE1": "1 44542U 19061A   25060.72190334  .00000040  00000-0  00000-0 0  9992",
        "TLE_LINE2": "2 44542  54.4202 198.6625 0008158  15.3627 344.6140  1.86228888 36991"
    }
]